{
  "type": "FeatureCollection",
  "features": [
    {
      "type": "Feature",
      "properties": {
        "norad_id": 34765,
        "name": "IRIDIUM 33 DEB",
        "group": "iridium-33-debris",
        "lat": 69.21858897870791,
        "lon": 39.45011098366623,
        "alt_km": 755.6193003065537,
        "timestamp": "2025-12-19T18:58:41.971545+00:00",
        "meta_object_name": "IRIDIUM 33 DEB",
        "meta_object_id": "1997-051LJ",
        "meta_epoch": "2025-12-18T13:21:25.941600",
        "meta_mean_motion": 14.40479279,
        "meta_eccentricity": 0.00160914,
        "meta_inclination": 86.3386,
        "meta_ra_of_asc_node": 30.2656,
        "meta_arg_of_pericenter": 191.4295,
        "meta_mean_anomaly": 322.071,
        "meta_ephemeris_type": 0,
        "meta_classification_type": "U",
        "meta_norad_cat_id": 34765,
        "meta_element_set_no": 999,
        "meta_rev_at_epoch": 87697,
        "meta_bstar": 0.00029987235,
        "meta_mean_motion_dot": 9.74e-06,
        "meta_mean_motion_ddot": 0,
        "tle_line1": "1 34765U 97051LJ  25352.55655025  .00000974  00000+0  29987-3 0  9994",
        "tle_line2": "2 34765  86.3386  30.2656 0016091 191.4295 322.0710 14.40479279876970"
      },
      "geometry": {
        "type": "Point",
        "coordinates": [
          39.45011098366623,
          69.21858897870791
        ]
      }
    },
    {
      "type": "Feature",
      "properties": {
        "norad_id": 34833,
        "name": "IRIDIUM 33 DEB",
        "group": "iridium-33-debris",
        "lat": 62.07043700306735,
        "lon": -138.87795349236197,
        "alt_km": 700.1555640178694,
        "timestamp": "2025-12-19T18:58:41.971555+00:00",
        "meta_object_name": "IRIDIUM 33 DEB",
        "meta_object_id": "1997-051MH",
        "meta_epoch": "2025-12-19T03:48:32.105088",
        "meta_mean_motion": 14.52413919,
        "meta_eccentricity": 0.00216401,
        "meta_inclination": 86.3931,
        "meta_ra_of_asc_node": 48.2278,
        "meta_arg_of_pericenter": 79.0912,
        "meta_mean_anomaly": 335.6925,
        "meta_ephemeris_type": 0,
        "meta_classification_type": "U",
        "meta_norad_cat_id": 34833,
        "meta_element_set_no": 999,
        "meta_rev_at_epoch": 87808,
        "meta_bstar": 0.00053191579,
        "meta_mean_motion_dot": 2.194e-05,
        "meta_mean_motion_ddot": 0,
        "tle_line1": "1 34833U 97051MH  25353.15870492  .00002194  00000+0  53192-3 0  9995",
        "tle_line2": "2 34833  86.3931  48.2278 0021640  79.0912 335.6925 14.52413919878088"
      },
      "geometry": {
        "type": "Point",
        "coordinates": [
          -138.87795349236197,
          62.07043700306735
        ]
      }
    },
    {
      "type": "Feature",
      "properties": {
        "norad_id": 34870,
        "name": "IRIDIUM 33 DEB",
        "group": "iridium-33-debris",
        "lat": -19.63353576693911,
        "lon": -50.46484767314343,
        "alt_km": 657.364919780408,
        "timestamp": "2025-12-19T18:58:41.971566+00:00",
        "meta_object_name": "IRIDIUM 33 DEB",
        "meta_object_id": "1997-051MQ",
        "meta_epoch": "2025-12-17T15:48:12.189024",
        "meta_mean_motion": 14.76525212,
        "meta_eccentricity": 0.00169592,
        "meta_inclination": 86.3102,
        "meta_ra_of_asc_node": 311.8309,
        "meta_arg_of_pericenter": 164.6796,
        "meta_mean_anomaly": 8.9227,
        "meta_ephemeris_type": 0,
        "meta_classification_type": "U",
        "meta_norad_cat_id": 34870,
        "meta_element_set_no": 999,
        "meta_rev_at_epoch": 88983,
        "meta_bstar": 0.0011120343,
        "meta_mean_motion_dot": 7.793e-05,
        "meta_mean_motion_ddot": 0,
        "tle_line1": "1 34870U 97051MQ  25351.65847441  .00007793  00000+0  11120-2 0  9991",
        "tle_line2": "2 34870  86.3102 311.8309 0016959 164.6796   8.9227 14.76525212889837"
      },
      "geometry": {
        "type": "Point",
        "coordinates": [
          -50.46484767314343,
          -19.63353576693911
        ]
      }
    },
    {
      "type": "Feature",
      "properties": {
        "norad_id": 34896,
        "name": "IRIDIUM 33 DEB",
        "group": "iridium-33-debris",
        "lat": -75.92132629505952,
        "lon": -51.31207163939063,
        "alt_km": 681.5003129625238,
        "timestamp": "2025-12-19T18:58:41.971576+00:00",
        "meta_object_name": "IRIDIUM 33 DEB",
        "meta_object_id": "1997-051MY",
        "meta_epoch": "2025-12-17T17:20:43.717344",
        "meta_mean_motion": 14.6632638,
        "meta_eccentricity": 0.00248916,
        "meta_inclination": 86.3286,
        "meta_ra_of_asc_node": 324.4498,
        "meta_arg_of_pericenter": 196.3048,
        "meta_mean_anomaly": 337.3904,
        "meta_ephemeris_type": 0,
        "meta_classification_type": "U",
        "meta_norad_cat_id": 34896,
        "meta_element_set_no": 999,
        "meta_rev_at_epoch": 87692,
        "meta_bstar": 0.00069874419,
        "meta_mean_motion_dot": 3.895e-05,
        "meta_mean_motion_ddot": 0,
        "tle_line1": "1 34896U 97051MY  25351.72272821  .00003895  00000+0  69874-3 0  9990",
        "tle_line2": "2 34896  86.3286 324.4498 0024891 196.3048 337.3904 14.66326380876924"
      },
      "geometry": {
        "type": "Point",
        "coordinates": [
          -51.31207163939063,
          -75.92132629505952
        ]
      }
    },
    {
      "type": "Feature",
      "properties": {
        "norad_id": 34926,
        "name": "IRIDIUM 33 DEB",
        "group": "iridium-33-debris",
        "lat": 72.4335972194344,
        "lon": 17.34476726868722,
        "alt_km": 754.2873534386927,
        "timestamp": "2025-12-19T18:58:41.971586+00:00",
        "meta_object_name": "IRIDIUM 33 DEB",
        "meta_object_id": "1997-051NF",
        "meta_epoch": "2025-12-18T12:00:33.859296",
        "meta_mean_motion": 14.54673553,
        "meta_eccentricity": 0.007466,
        "meta_inclination": 86.1318,
        "meta_ra_of_asc_node": 5.6024,
        "meta_arg_of_pericenter": 272.8788,
        "meta_mean_anomaly": 246.5366,
        "meta_ephemeris_type": 0,
        "meta_classification_type": "U",
        "meta_norad_cat_id": 34926,
        "meta_element_set_no": 999,
        "meta_rev_at_epoch": 86540,
        "meta_bstar": 0.0047273408,
        "meta_mean_motion_dot": 0.00021041,
        "meta_mean_motion_ddot": 0,
        "tle_line1": "1 34926U 97051NF  25352.50039189  .00021041  00000+0  47273-2 0  9990",
        "tle_line2": "2 34926  86.1318   5.6024 0074660 272.8788 246.5366 14.54673553865403"
      },
      "geometry": {
        "type": "Point",
        "coordinates": [
          17.34476726868722,
          72.4335972194344
        ]
      }
    },
    {
      "type": "Feature",
      "properties": {
        "norad_id": 34985,
        "name": "IRIDIUM 33 DEB",
        "group": "iridium-33-debris",
        "lat": -59.32773886931885,
        "lon": -119.98294331591572,
        "alt_km": 747.9162322827187,
        "timestamp": "2025-12-19T18:58:41.971596+00:00",
        "meta_object_name": "IRIDIUM 33 DEB",
        "meta_object_id": "1997-051NR",
        "meta_epoch": "2025-12-18T03:42:15.992064",
        "meta_mean_motion": 14.42032375,
        "meta_eccentricity": 0.00213063,
        "meta_inclination": 86.3697,
        "meta_ra_of_asc_node": 54.5701,
        "meta_arg_of_pericenter": 201.5738,
        "meta_mean_anomaly": 187.9746,
        "meta_ephemeris_type": 0,
        "meta_classification_type": "U",
        "meta_norad_cat_id": 34985,
        "meta_element_set_no": 999,
        "meta_rev_at_epoch": 87253,
        "meta_bstar": 0.00049263148,
        "meta_mean_motion_dot": 1.64e-05,
        "meta_mean_motion_ddot": 0,
        "tle_line1": "1 34985U 97051NR  25352.15435176  .00001640  00000+0  49263-3 0  9997",
        "tle_line2": "2 34985  86.3697  54.5701 0021306 201.5738 187.9746 14.42032375872538"
      },
      "geometry": {
        "type": "Point",
        "coordinates": [
          -119.98294331591572,
          -59.32773886931885
        ]
      }
    },
    {
      "type": "Feature",
      "properties": {
        "norad_id": 35051,
        "name": "IRIDIUM 33 DEB",
        "group": "iridium-33-debris",
        "lat": -46.38147504986397,
        "lon": 1.9200881900411733,
        "alt_km": 743.740259355337,
        "timestamp": "2025-12-19T18:58:41.971607+00:00",
        "meta_object_name": "IRIDIUM 33 DEB",
        "meta_object_id": "1997-051NX",
        "meta_epoch": "2025-12-19T07:34:48.668448",
        "meta_mean_motion": 14.47625509,
        "meta_eccentricity": 0.00104834,
        "meta_inclination": 86.3238,
        "meta_ra_of_asc_node": 5.9957,
        "meta_arg_of_pericenter": 72.9006,
        "meta_mean_anomaly": 287.3345,
        "meta_ephemeris_type": 0,
        "meta_classification_type": "U",
        "meta_norad_cat_id": 35051,
        "meta_element_set_no": 999,
        "meta_rev_at_epoch": 87091,
        "meta_bstar": 0.00045048396,
        "meta_mean_motion_dot": 1.68e-05,
        "meta_mean_motion_ddot": 0,
        "tle_line1": "1 35051U 97051NX  25353.31584107  .00001680  00000+0  45048-3 0  9991",
        "tle_line2": "2 35051  86.3238   5.9957 0010483  72.9006 287.3345 14.47625509870911"
      },
      "geometry": {
        "type": "Point",
        "coordinates": [
          1.9200881900411733,
          -46.38147504986397
        ]
      }
    }
  ]
}